{
  "norad_id": 51143,
  "name": "STARLINK-3184",
  "history": [
    {
      "epoch": "2026-03-28T16:43:46.438464Z",
      "apogee_km": 540.527037844854,
      "perigee_km": 538.947825469596,
      "latitude_deg": 6.8822889889379454e-06,
      "longitude_deg": 146.7346167982892,
      "height_km": 540.6312332180729,
      "semi_major_axis_km": 6917.874431657225,
      "eccentricity": 0.00011414,
      "inclination_deg": 53.2165,
      "raan_deg": 223.7919,
      "arg_perigee_deg": 89.847,
      "mean_anomaly_deg": 270.2653,
      "mean_motion_rev_day": 15.08841949
    }
  ]
}